IRIDIUM 7 [-]           
1 24793U 97020B   23296.46227557  .00000684  00000+0  23376-3 0  9994
2 24793  86.3946  69.3445 0001899  87.5944 272.5469 14.34943098385655
IRIDIUM 5 [-]           
1 24795U 97020D   23296.43272740  .00004863  00000+0  48566-3 0  9998
2 24795  86.3979 359.2376 0129616 124.7479 236.6031 14.85098138395785
IRIDIUM 4 [-]           
1 24796U 97020E   23295.85394303  .00000685  00000+0  22972-3 0  9995
2 24796  86.3945  66.8763 0002145  87.6027 272.5416 14.35849643385890
IRIDIUM 914 [-]         
1 24836U 97030A   23295.89375173  .00000936  00000+0  29328-3 0  9990
2 24836  86.3903  77.2282 0003718  70.9599 289.2002 14.39656464382396
IRIDIUM 16 [-]          
1 24841U 97030F   23296.00703692  .00000822  00000+0  26800-3 0  9997
2 24841  86.3984  98.5601 0000838 170.4779 189.6435 14.37545123380576
IRIDIUM 911 [-]         
1 24842U 97030G   23295.89384303  .00001062  00000+0  29224-3 0  9998
2 24842  86.4411  97.9311 0012806 313.6341  46.3799 14.46071023387851
IRIDIUM 17 [-]          
1 24870U 97034B   23295.89541796  .00000672  00000+0  22169-3 0  9991
2 24870  86.3931 128.2792 0002418 131.5351 228.6053 14.36640023376931
